{
  "type": "FeatureCollection",
  "features": [
    {
      "type": "Feature",
      "properties": {
        "norad_id": 33835,
        "name": "COSMOS 2251 DEB",
        "group": "cosmos-2251-debris",
        "lat": 41.83355523517846,
        "lon": -79.83587669049042,
        "alt_km": 650.2070189626775,
        "timestamp": "2025-12-05T11:32:56.409983+00:00",
        "meta_object_name": "COSMOS 2251 DEB",
        "meta_object_id": "1993-036CC",
        "meta_epoch": "2025-12-04T10:33:11.383776",
        "meta_mean_motion": 14.6210002,
        "meta_eccentricity": 0.0055533,
        "meta_inclination": 74.0563,
        "meta_ra_of_asc_node": 116.9819,
        "meta_arg_of_pericenter": 172.8257,
        "meta_mean_anomaly": 243.7771,
        "meta_ephemeris_type": 0,
        "meta_classification_type": "U",
        "meta_norad_cat_id": 33835,
        "meta_element_set_no": 999,
        "meta_rev_at_epoch": 88668,
        "meta_bstar": 0.0027329,
        "meta_mean_motion_dot": 0.00014038,
        "meta_mean_motion_ddot": 0,
        "tle_line1": "1 33835U 93036CC  25338.43971509  .00014038  00000+0  27329-2 0  9992",
        "tle_line2": "2 33835  74.0563 116.9819 0055533 172.8257 243.7771 14.62100020886680"
      },
      "geometry": {
        "type": "Point",
        "coordinates": [
          -79.83587669049042,
          41.83355523517846
        ]
      }
    },
    {
      "type": "Feature",
      "properties": {
        "norad_id": 33836,
        "name": "COSMOS 2251 DEB",
        "group": "cosmos-2251-debris",
        "lat": 62.634946496021904,
        "lon": -53.05469102426675,
        "alt_km": 617.2357191457395,
        "timestamp": "2025-12-05T11:32:56.409993+00:00",
        "meta_object_name": "COSMOS 2251 DEB",
        "meta_object_id": "1993-036CD",
        "meta_epoch": "2025-12-04T06:34:35.632128",
        "meta_mean_motion": 14.79355493,
        "meta_eccentricity": 0.0022443,
        "meta_inclination": 73.9977,
        "meta_ra_of_asc_node": 275.651,
        "meta_arg_of_pericenter": 131.9482,
        "meta_mean_anomaly": 349.3006,
        "meta_ephemeris_type": 0,
        "meta_classification_type": "U",
        "meta_norad_cat_id": 33836,
        "meta_element_set_no": 999,
        "meta_rev_at_epoch": 63963,
        "meta_bstar": 0.0033077,
        "meta_mean_motion_dot": 0.00024809,
        "meta_mean_motion_ddot": 0,
        "tle_line1": "1 33836U 93036CD  25338.27402352  .00024809  00000+0  33077-2 0  9994",
        "tle_line2": "2 33836  73.9977 275.6510 0022443 131.9482 349.3006 14.79355493639638"
      },
      "geometry": {
        "type": "Point",
        "coordinates": [
          -53.05469102426675,
          62.634946496021904
        ]
      }
    },
    {
      "type": "Feature",
      "properties": {
        "norad_id": 33837,
        "name": "COSMOS 2251 DEB",
        "group": "cosmos-2251-debris",
        "lat": 70.84585276336172,
        "lon": 124.8901596314011,
        "alt_km": 737.5240442027552,
        "timestamp": "2025-12-05T11:32:56.410003+00:00",
        "meta_object_name": "COSMOS 2251 DEB",
        "meta_object_id": "1993-036CE",
        "meta_epoch": "2025-12-04T15:19:23.384640",
        "meta_mean_motion": 14.5067416,
        "meta_eccentricity": 0.0035688,
        "meta_inclination": 74.0131,
        "meta_ra_of_asc_node": 70.8494,
        "meta_arg_of_pericenter": 293.8911,
        "meta_mean_anomaly": 65.8511,
        "meta_ephemeris_type": 0,
        "meta_classification_type": "U",
        "meta_norad_cat_id": 33837,
        "meta_element_set_no": 999,
        "meta_rev_at_epoch": 88678,
        "meta_bstar": 0.00053407,
        "meta_mean_motion_dot": 2.087e-05,
        "meta_mean_motion_ddot": 0,
        "tle_line1": "1 33837U 93036CE  25338.63846510  .00002087  00000+0  53407-3 0  9997",
        "tle_line2": "2 33837  74.0131  70.8494 0035688 293.8911  65.8511 14.50674160886784"
      },
      "geometry": {
        "type": "Point",
        "coordinates": [
          124.8901596314011,
          70.84585276336172
        ]
      }
    },
    {
      "type": "Feature",
      "properties": {
        "norad_id": 33838,
        "name": "COSMOS 2251 DEB",
        "group": "cosmos-2251-debris",
        "lat": 12.519062898101074,
        "lon": 167.05111809500409,
        "alt_km": 730.8904754549503,
        "timestamp": "2025-12-05T11:32:56.410013+00:00",
        "meta_object_name": "COSMOS 2251 DEB",
        "meta_object_id": "1993-036CF",
        "meta_epoch": "2025-12-04T14:11:55.262112",
        "meta_mean_motion": 14.48325803,
        "meta_eccentricity": 0.002739,
        "meta_inclination": 74.0357,
        "meta_ra_of_asc_node": 165.0722,
        "meta_arg_of_pericenter": 288.0365,
        "meta_mean_anomaly": 128.3379,
        "meta_ephemeris_type": 0,
        "meta_classification_type": "U",
        "meta_norad_cat_id": 33838,
        "meta_element_set_no": 999,
        "meta_rev_at_epoch": 88451,
        "meta_bstar": 0.00067452,
        "meta_mean_motion_dot": 2.507e-05,
        "meta_mean_motion_ddot": 0,
        "tle_line1": "1 33838U 93036CF  25338.59161183  .00002507  00000+0  67452-3 0  9991",
        "tle_line2": "2 33838  74.0357 165.0722 0027390 288.0365 128.3379 14.48325803884516"
      },
      "geometry": {
        "type": "Point",
        "coordinates": [
          167.05111809500409,
          12.519062898101074
        ]
      }
    },
    {
      "type": "Feature",
      "properties": {
        "norad_id": 33839,
        "name": "COSMOS 2251 DEB",
        "group": "cosmos-2251-debris",
        "lat": -55.632779616859814,
        "lon": 65.16580614617332,
        "alt_km": 690.54628607,
        "timestamp": "2025-12-05T11:32:56.410023+00:00",
        "meta_object_name": "COSMOS 2251 DEB",
        "meta_object_id": "1993-036CG",
        "meta_epoch": "2025-12-04T16:31:13.558368",
        "meta_mean_motion": 14.64384931,
        "meta_eccentricity": 0.0084877,
        "meta_inclination": 74.0394,
        "meta_ra_of_asc_node": 221.9496,
        "meta_arg_of_pericenter": 335.9087,
        "meta_mean_anomaly": 46.0985,
        "meta_ephemeris_type": 0,
        "meta_classification_type": "U",
        "meta_norad_cat_id": 33839,
        "meta_element_set_no": 999,
        "meta_rev_at_epoch": 89462,
        "meta_bstar": 0.00058017,
        "meta_mean_motion_dot": 3.2e-05,
        "meta_mean_motion_ddot": 0,
        "tle_line1": "1 33839U 93036CG  25338.68835137  .00003200  00000+0  58017-3 0  9997",
        "tle_line2": "2 33839  74.0394 221.9496 0084877 335.9087  46.0985 14.64384931894621"
      },
      "geometry": {
        "type": "Point",
        "coordinates": [
          65.16580614617332,
          -55.632779616859814
        ]
      }
    },
    {
      "type": "Feature",
      "properties": {
        "norad_id": 33841,
        "name": "COSMOS 2251 DEB",
        "group": "cosmos-2251-debris",
        "lat": -53.2040043200993,
        "lon": -91.09211126292337,
        "alt_km": 767.259028322921,
        "timestamp": "2025-12-05T11:32:56.410033+00:00",
        "meta_object_name": "COSMOS 2251 DEB",
        "meta_object_id": "1993-036CJ",
        "meta_epoch": "2025-12-04T14:54:33.444288",
        "meta_mean_motion": 14.37841125,
        "meta_eccentricity": 0.0020185,
        "meta_inclination": 74.0373,
        "meta_ra_of_asc_node": 292.9893,
        "meta_arg_of_pericenter": 15.2588,
        "meta_mean_anomaly": 158.922,
        "meta_ephemeris_type": 0,
        "meta_classification_type": "U",
        "meta_norad_cat_id": 33841,
        "meta_element_set_no": 999,
        "meta_rev_at_epoch": 87997,
        "meta_bstar": 0.00046571,
        "meta_mean_motion_dot": 1.381e-05,
        "meta_mean_motion_ddot": 0,
        "tle_line1": "1 33841U 93036CJ  25338.62122042  .00001381  00000+0  46571-3 0  9998",
        "tle_line2": "2 33841  74.0373 292.9893 0020185  15.2588 158.9220 14.37841125879975"
      },
      "geometry": {
        "type": "Point",
        "coordinates": [
          -91.09211126292337,
          -53.2040043200993
        ]
      }
    },
    {
      "type": "Feature",
      "properties": {
        "norad_id": 33842,
        "name": "COSMOS 2251 DEB",
        "group": "cosmos-2251-debris",
        "lat": 66.77599183528274,
        "lon": -85.02256102687467,
        "alt_km": 743.2892184342718,
        "timestamp": "2025-12-05T11:32:56.410043+00:00",
        "meta_object_name": "COSMOS 2251 DEB",
        "meta_object_id": "1993-036CK",
        "meta_epoch": "2025-12-04T10:15:01.166976",
        "meta_mean_motion": 14.42670888,
        "meta_eccentricity": 0.004702,
        "meta_inclination": 74.0333,
        "meta_ra_of_asc_node": 235.0802,
        "meta_arg_of_pericenter": 344.079,
        "meta_mean_anomaly": 15.8885,
        "meta_ephemeris_type": 0,
        "meta_classification_type": "U",
        "meta_norad_cat_id": 33842,
        "meta_element_set_no": 999,
        "meta_rev_at_epoch": 88217,
        "meta_bstar": 0.00064102,
        "meta_mean_motion_dot": 2.134e-05,
        "meta_mean_motion_ddot": 0,
        "tle_line1": "1 33842U 93036CK  25338.42709684  .00002134  00000+0  64102-3 0  9997",
        "tle_line2": "2 33842  74.0333 235.0802 0047020 344.0790  15.8885 14.42670888882171"
      },
      "geometry": {
        "type": "Point",
        "coordinates": [
          -85.02256102687467,
          66.77599183528274
        ]
      }
    }
  ]
}